{
  "type": "FeatureCollection",
  "features": [
    {
      "type": "Feature",
      "properties": {
        "norad_id": 34637,
        "name": "COSMOS 2251 DEB",
        "group": "cosmos-2251-debris",
        "lat": -73.41380658855978,
        "lon": 18.38709792993846,
        "alt_km": 713.3219050089765,
        "timestamp": "2025-12-17T10:52:54.747186+00:00",
        "meta_object_name": "COSMOS 2251 DEB",
        "meta_object_id": "1993-036XJ",
        "meta_epoch": "2025-12-16T17:45:36.780192",
        "meta_mean_motion": 14.60134531,
        "meta_eccentricity": 0.00494851,
        "meta_inclination": 74.0497,
        "meta_ra_of_asc_node": 93.5276,
        "meta_arg_of_pericenter": 162.9254,
        "meta_mean_anomaly": 322.6852,
        "meta_ephemeris_type": 0,
        "meta_classification_type": "U",
        "meta_norad_cat_id": 34637,
        "meta_element_set_no": 999,
        "meta_rev_at_epoch": 88585,
        "meta_bstar": 0.00067925884,
        "meta_mean_motion_dot": 3.297e-05,
        "meta_mean_motion_ddot": 0,
        "tle_line1": "1 34637U 93036XJ  25350.74000903  .00003297  00000+0  67926-3 0  9995",
        "tle_line2": "2 34637  74.0497  93.5276 0049485 162.9254 322.6852 14.60134531885857"
      },
      "geometry": {
        "type": "Point",
        "coordinates": [
          18.38709792993846,
          -73.41380658855978
        ]
      }
    },
    {
      "type": "Feature",
      "properties": {
        "norad_id": 34641,
        "name": "COSMOS 2251 DEB",
        "group": "cosmos-2251-debris",
        "lat": 49.21100762498232,
        "lon": -126.97625923285439,
        "alt_km": 724.5205625777762,
        "timestamp": "2025-12-17T10:52:54.747197+00:00",
        "meta_object_name": "COSMOS 2251 DEB",
        "meta_object_id": "1993-036XN",
        "meta_epoch": "2025-12-16T23:32:05.646624",
        "meta_mean_motion": 14.52036603,
        "meta_eccentricity": 0.00186177,
        "meta_inclination": 73.84,
        "meta_ra_of_asc_node": 73.5613,
        "meta_arg_of_pericenter": 347.3109,
        "meta_mean_anomaly": 190.022,
        "meta_ephemeris_type": 0,
        "meta_classification_type": "U",
        "meta_norad_cat_id": 34641,
        "meta_element_set_no": 999,
        "meta_rev_at_epoch": 88317,
        "meta_bstar": 0.00071542702,
        "meta_mean_motion_dot": 2.87e-05,
        "meta_mean_motion_ddot": 0,
        "tle_line1": "1 34641U 93036XN  25350.98062091  .00002870  00000+0  71543-3 0  9998",
        "tle_line2": "2 34641  73.8400  73.5613 0018617 347.3109 190.0220 14.52036603883178"
      },
      "geometry": {
        "type": "Point",
        "coordinates": [
          -126.97625923285439,
          49.21100762498232
        ]
      }
    },
    {
      "type": "Feature",
      "properties": {
        "norad_id": 34642,
        "name": "COSMOS 2251 DEB",
        "group": "cosmos-2251-debris",
        "lat": 29.099914947226306,
        "lon": -19.17629380504968,
        "alt_km": 968.2547970130281,
        "timestamp": "2025-12-17T10:52:54.747208+00:00",
        "meta_object_name": "COSMOS 2251 DEB",
        "meta_object_id": "1993-036XP",
        "meta_epoch": "2025-12-16T09:42:12.280320",
        "meta_mean_motion": 13.98984283,
        "meta_eccentricity": 0.0206859,
        "meta_inclination": 74.0048,
        "meta_ra_of_asc_node": 333.4536,
        "meta_arg_of_pericenter": 152.463,
        "meta_mean_anomaly": 358.4975,
        "meta_ephemeris_type": 0,
        "meta_classification_type": "U",
        "meta_norad_cat_id": 34642,
        "meta_element_set_no": 999,
        "meta_rev_at_epoch": 85344,
        "meta_bstar": 0.00063761054,
        "meta_mean_motion_dot": 1.084e-05,
        "meta_mean_motion_ddot": 0,
        "tle_line1": "1 34642U 93036XP  25350.40430880  .00001084  00000+0  63761-3 0  9990",
        "tle_line2": "2 34642  74.0048 333.4536 0206859 152.4630 358.4975 13.98984283853442"
      },
      "geometry": {
        "type": "Point",
        "coordinates": [
          -19.17629380504968,
          29.099914947226306
        ]
      }
    },
    {
      "type": "Feature",
      "properties": {
        "norad_id": 34671,
        "name": "COSMOS 2251 DEB",
        "group": "cosmos-2251-debris",
        "lat": 51.77160621608877,
        "lon": -76.1280665397578,
        "alt_km": 664.1904063572902,
        "timestamp": "2025-12-17T10:52:54.747218+00:00",
        "meta_object_name": "COSMOS 2251 DEB",
        "meta_object_id": "1993-036XR",
        "meta_epoch": "2025-12-16T20:09:54.832608",
        "meta_mean_motion": 14.6700884,
        "meta_eccentricity": 0.00111433,
        "meta_inclination": 74.026,
        "meta_ra_of_asc_node": 126.379,
        "meta_arg_of_pericenter": 207.2862,
        "meta_mean_anomaly": 280.8912,
        "meta_ephemeris_type": 0,
        "meta_classification_type": "U",
        "meta_norad_cat_id": 34671,
        "meta_element_set_no": 999,
        "meta_rev_at_epoch": 88357,
        "meta_bstar": 0.0012197079,
        "meta_mean_motion_dot": 6.819e-05,
        "meta_mean_motion_ddot": 0,
        "tle_line1": "1 34671U 93036XR  25350.84021797  .00006819  00000+0  12197-2 0  9990",
        "tle_line2": "2 34671  74.0260 126.3790 0011143 207.2862 280.8912 14.67008840883576"
      },
      "geometry": {
        "type": "Point",
        "coordinates": [
          -76.1280665397578,
          51.77160621608877
        ]
      }
    },
    {
      "type": "Feature",
      "properties": {
        "norad_id": 34672,
        "name": "COSMOS 2251 DEB",
        "group": "cosmos-2251-debris",
        "lat": 31.878867421252192,
        "lon": 106.67575588508568,
        "alt_km": 780.8748080129917,
        "timestamp": "2025-12-17T10:52:54.747228+00:00",
        "meta_object_name": "COSMOS 2251 DEB",
        "meta_object_id": "1993-036XS",
        "meta_epoch": "2025-12-11T16:16:44.249952",
        "meta_mean_motion": 14.36406242,
        "meta_eccentricity": 0.00236356,
        "meta_inclination": 74.0334,
        "meta_ra_of_asc_node": 307.539,
        "meta_arg_of_pericenter": 19.6523,
        "meta_mean_anomaly": 155.1005,
        "meta_ephemeris_type": 0,
        "meta_classification_type": "U",
        "meta_norad_cat_id": 34672,
        "meta_element_set_no": 999,
        "meta_rev_at_epoch": 65162,
        "meta_bstar": 0.00043649208,
        "meta_mean_motion_dot": 1.257e-05,
        "meta_mean_motion_ddot": 0,
        "tle_line1": "1 34672U 93036XS  25345.67828993  .00001257  00000+0  43649-3 0  9997",
        "tle_line2": "2 34672  74.0334 307.5390 0023635  19.6523 155.1005 14.36406242651626"
      },
      "geometry": {
        "type": "Point",
        "coordinates": [
          106.67575588508568,
          31.878867421252192
        ]
      }
    },
    {
      "type": "Feature",
      "properties": {
        "norad_id": 34678,
        "name": "COSMOS 2251 DEB",
        "group": "cosmos-2251-debris",
        "lat": -39.85995785515461,
        "lon": -169.05014818178557,
        "alt_km": 815.2037596842074,
        "timestamp": "2025-12-17T10:52:54.747239+00:00",
        "meta_object_name": "COSMOS 2251 DEB",
        "meta_object_id": "1993-036XY",
        "meta_epoch": "2025-12-16T11:02:37.108608",
        "meta_mean_motion": 14.30065676,
        "meta_eccentricity": 0.00245146,
        "meta_inclination": 74.0376,
        "meta_ra_of_asc_node": 358.9287,
        "meta_arg_of_pericenter": 46.8807,
        "meta_mean_anomaly": 103.3309,
        "meta_ephemeris_type": 0,
        "meta_classification_type": "U",
        "meta_norad_cat_id": 34678,
        "meta_element_set_no": 999,
        "meta_rev_at_epoch": 87432,
        "meta_bstar": 3.1918367e-05,
        "meta_mean_motion_dot": 5.7e-07,
        "meta_mean_motion_ddot": 0,
        "tle_line1": "1 34678U 93036XY  25350.46015172  .00000057  00000+0  31918-4 0  9997",
        "tle_line2": "2 34678  74.0376 358.9287 0024514  46.8807 103.3309 14.30065676874329"
      },
      "geometry": {
        "type": "Point",
        "coordinates": [
          -169.05014818178557,
          -39.85995785515461
        ]
      }
    },
    {
      "type": "Feature",
      "properties": {
        "norad_id": 34680,
        "name": "COSMOS 2251 DEB",
        "group": "cosmos-2251-debris",
        "lat": -54.40812546996699,
        "lon": 97.29268408883176,
        "alt_km": 697.060471624568,
        "timestamp": "2025-12-17T10:52:54.747250+00:00",
        "meta_object_name": "COSMOS 2251 DEB",
        "meta_object_id": "1993-036YA",
        "meta_epoch": "2025-12-16T15:31:15.511584",
        "meta_mean_motion": 14.60667066,
        "meta_eccentricity": 0.00066114,
        "meta_inclination": 74.0425,
        "meta_ra_of_asc_node": 122.3971,
        "meta_arg_of_pericenter": 221.4971,
        "meta_mean_anomaly": 160.4979,
        "meta_ephemeris_type": 0,
        "meta_classification_type": "U",
        "meta_norad_cat_id": 34680,
        "meta_element_set_no": 999,
        "meta_rev_at_epoch": 88385,
        "meta_bstar": 0.00085538922,
        "meta_mean_motion_dot": 4.139e-05,
        "meta_mean_motion_ddot": 0,
        "tle_line1": "1 34680U 93036YA  25350.64670731  .00004139  00000+0  85539-3 0  9990",
        "tle_line2": "2 34680  74.0425 122.3971 0006611 221.4971 160.4979 14.60667066883850"
      },
      "geometry": {
        "type": "Point",
        "coordinates": [
          97.29268408883176,
          -54.40812546996699
        ]
      }
    }
  ]
}